format  = 'OEF2.0'       ! file format
rectype = '1L'           ! record type (1L/ML)
elem    = 'KEP'          ! type of orbital elements
refsys  = ECLM J2000     ! default reference system
END_OF_HEADER
! Name, Epoch(MJD), a, e, i, long. node, arg. peric., mean anomaly
'1'            59200.000000   2.7660891094827860E+00   7.8168462892274276E-02   1.0587898857109254E+01   8.0272357144654436E+01   7.3724871441522652E+01   2.0554542924859072E+02  3.49  0.12  0
'2'            59200.000000   2.7743816807086223E+00   2.2975001929759856E-01   3.4854459974957670E+01   1.7296588613805145E+02   3.1028810448983080E+02   1.8758634770837241E+02  4.16  0.11  0
'3'            59200.000000   2.6680198124957974E+00   2.5698812636016027E-01   1.2991484808553592E+01   1.6985304135895885E+02   2.4803276664903495E+02   1.7071124899712757E+02  5.42  0.32  0
'4'            59200.000000   2.3620301035200328E+00   8.8425017372340015E-02   7.1416534291424503E+00   1.0380837699666738E+02   1.5092239156486772E+02   2.5856787269443242E+02  3.45  0.32  0
'5'            59200.000000   2.5736207535545677E+00   1.9078793649695647E-01   5.3675383019952401E+00   1.4157167755145602E+02   3.5862503788467382E+02   6.5612379925816910E+01  6.99  0.15  0
'6'            59200.000000   2.4245640353277409E+00   2.0327768273993285E-01   1.4739728563340483E+01   1.3864293394009596E+02   2.3970765404659380E+02   2.4294480781796091E+02  5.75  0.24  0
'7'            59200.000000   2.3871386465573075E+00   2.2964635368135267E-01   5.5182698135576542E+00   2.5954044863439356E+02   1.4524070458726621E+02   3.0079265222859482E+02  5.58  0.15  0
'8'            59200.000000   2.2013738788865278E+00   1.5585014794810342E-01   5.8890916876949335E+00   1.1087633970146702E+02   2.8550181319194104E+02   1.5638508490829347E+01  6.64  0.28  0
'9'            59200.000000   2.3860851310435747E+00   1.2335346762180567E-01   5.5763181496560446E+00   6.8904768201793132E+01   6.2936266076699479E+00   7.7429389356646567E+01  6.33  0.17  0
'10'           59200.000000   3.1426596806277076E+00   1.1194744209874519E-01   3.8314831492382848E+00   2.8319814379926015E+02   3.1242103016535270E+02   2.5820934389748464E+02  5.53  0.15  0
